GPS BIIR-2  (PRN 13)    
1 24876U 97035A   26087.43169227  .00000051  00000+0  00000+0 0  9992
2 24876  55.9500 101.7308 0098722  56.1329 304.8527  2.00563873210339
